OBJECT_NAME,OBJECT_ID,EPOCH,MEAN_MOTION,ECCENTRICITY,INCLINATION,RA_OF_ASC_NODE,ARG_OF_PERICENTER,MEAN_ANOMALY,EPHEMERIS_TYPE,CLASSIFICATION_TYPE,NORAD_CAT_ID,ELEMENT_SET_NO,REV_AT_EPOCH,BSTAR,MEAN_MOTION_DOT,MEAN_MOTION_DDOT
LINGQIAO VIDEO A,2015-057B,2026-06-08T11:44:22.711200,14.77382663,.0015503,97.6624,154.7206,301.6156,58.3541,0,U,40959,999,57412,.16842E-3,.1151E-4,0
LINGQIAO VIDEO B,2015-057C,2026-06-08T12:49:12.775296,14.77487167,.0015678,97.6589,155.9291,301.6473,58.3209,0,U,40960,999,57417,.83249E-4,.546E-5,0
JILIN-1,2015-057D,2026-06-08T11:36:47.308032,14.78146414,.0015458,97.6506,159.2829,294.2827,65.6770,0,U,40961,999,57432,.13123E-3,.903E-5,0
FOX-1A (AO-85),2015-058D,2026-06-08T11:57:58.195872,14.90927920,.0129963,64.7761,305.9846,59.9928,301.4006,0,U,40967,999,11227,.26383E-3,.2891E-4,0
SINOD-D 1,2015-058E,2026-06-08T12:30:07.850880,14.95850283,.0118541,64.7760,286.0508,56.5392,304.6987,0,U,40968,999,11536,.30382E-3,.3742E-4,0
ELEKTRO-L 2,2015-074A,2026-06-08T01:19:49.413792,1.00272046,.00011341,6.6705,70.6343,284.8984,266.3917,0,U,41105,999,3841,0,-.103E-5,0
DAMPE,2015-078A,2026-06-08T11:23:07.910304,15.30764799,.0013668,97.4562,164.8991,103.5794,256.6970,0,U,41173,999,58321,.65748E-4,.1881E-4,0
ORBCOMM FM114,2015-081A,2026-06-08T10:01:25.516416,14.58848434,.0001977,47.0058,43.4650,170.6189,189.4734,0,U,41179,999,55647,.13985E-3,.49E-5,0
ORBCOMM FM110,2015-081D,2026-06-08T09:44:53.178720,14.58866539,.0002852,47.0028,42.9609,26.3800,333.7231,0,U,41182,999,55634,.19351E-3,.743E-5,0
ORBCOMM FM112,2015-081F,2026-06-07T16:36:11.603808,14.58890878,.00031239,47.0001,315.1475,175.6095,184.4819,0,U,41184,999,55756,.20932025E-3,.819E-5,0
ORBCOMM FM113,2015-081G,2026-06-08T03:32:28.144608,14.58849184,.00017384,47.0018,313.3644,188.1874,171.8983,0,U,41185,999,55761,.14298569E-3,.505E-5,0
ORBCOMM FM108,2015-081J,2026-06-08T10:51:31.680864,14.58862136,.000251,47.0040,223.4955,184.4862,175.6002,0,U,41187,999,55880,.15217E-3,.548E-5,0
ORBCOMM FM117,2015-081K,2026-06-07T20:52:51.913056,14.58857943,.00029806,47.0005,224.8856,184.7848,175.3010,0,U,41188,999,55876,.16110195E-3,.59E-5,0
ORBCOMM FM116,2015-081L,2026-06-07T17:07:36.101856,14.58869594,.00011218,47.0035,315.4145,3.5235,356.5659,0,U,41189,999,55755,.21737163E-3,.857E-5,0
HORYU-4,2016-012D,2026-06-07T15:50:33.220608,15.89027763,.00028324,30.9848,148.6331,206.9121,153.1392,0,U,41340,999,56929,.1021123E-2,.317249E-2,0
ZIYUAN 3-02 (ZY 3-02),2016-033A,2026-06-08T12:11:44.889216,15.21397533,.0011623,97.3834,235.4483,324.3163,35.7295,0,U,41556,999,55666,.22717E-3,.5036E-4,0
CARTOSAT-2C,2016-040A,2026-06-08T11:57:28.821600,15.19252620,.0009811,97.4486,219.5951,158.8751,201.2891,0,U,41599,999,55239,.24921E-3,.5191E-4,0
LAPAN-A3,2016-040E,2026-06-08T12:14:38.135040,15.33049801,.0011785,97.1489,155.9414,53.8014,306.4316,0,U,41603,999,55348,.10943E-3,.3425E-4,0
GAOFEN-3,2016-049A,2026-06-08T11:32:46.853376,14.42214990,.0001219,98.4016,167.3988,98.2057,261.9271,0,U,41727,999,51739,.71387E-4,.192E-5,0
CAS-2T & KS-1Q,2016-066G,2026-06-08T10:39:51.357024,14.44665589,.034246,98.3822,235.2804,155.9357,205.8274,0,U,41847,999,50353,.25337E-3,.1755E-4,0
YUNHAI-1 01,2016-068A,2026-06-08T12:09:17.564256,14.32699828,.0006486,98.5836,170.5946,63.7254,296.4596,0,U,41857,999,50058,.1705E-3,.42E-5,0
RESOURCESAT-2A,2016-074A,2026-06-08T11:37:12.378720,14.21613356,.0003344,98.7521,233.0595,99.6299,260.5256,0,U,41877,999,49306,.3908E-4,.42E-6,0
TANSAT,2016-081A,2026-06-08T13:04:00.619104,14.59944967,.002021,98.5368,159.5470,339.8943,20.1458,0,U,41898,999,50336,.15206E-3,.68E-5,0
JILIN-1 03,2017-002B,2026-06-08T10:58:03.963648,15.41362616,.0005627,97.1952,166.6659,182.1472,177.9752,0,U,41914,999,52051,.28307E-3,.1174E-3,0
CARTOSAT-2D,2017-008A,2026-06-08T11:09:02.238336,15.19267676,.0003532,97.4108,218.9330,272.2400,87.8431,0,U,41948,999,51625,.18425E-3,.3818E-4,0
