LINGQIAO VIDEO A        
1 40959U 15057B   26159.48915175  .00001151  00000+0  16842-3 0  9999
2 40959  97.6624 154.7206 0015503 301.6156  58.3541 14.77382663574126
LINGQIAO VIDEO B        
1 40960U 15057C   26159.53417564  .00000546  00000+0  83249-4 0  9999
2 40960  97.6589 155.9291 0015678 301.6473  58.3209 14.77487167574171
JILIN-1                 
1 40961U 15057D   26159.48388088  .00000903  00000+0  13123-3 0  9992
2 40961  97.6506 159.2829 0015458 294.2827  65.6770 14.78146414574320
FOX-1A (AO-85)          
1 40967U 15058D   26159.49859023  .00002891  00000+0  26383-3 0  9992
2 40967  64.7761 305.9846 0129963  59.9928 301.4006 14.90927920112276
SINOD-D 1               
1 40968U 15058E   26159.52092420  .00003742  00000+0  30382-3 0  9997
2 40968  64.7760 286.0508 0118541  56.5392 304.6987 14.95850283115366
ELEKTRO-L 2             
1 41105U 15074A   26159.05543303 -.00000103  00000+0  00000+0 0  9997
2 41105   6.6705  70.6343 0001134 284.8984 266.3917  1.00272046 38414
DAMPE                   
1 41173U 15078A   26159.47439711  .00001881  00000+0  65748-4 0  9997
2 41173  97.4562 164.8991 0013668 103.5794 256.6970 15.30764799583217
ORBCOMM FM114           
1 41179U 15081A   26159.41765644  .00000490  00000+0  13985-3 0  9998
2 41179  47.0058  43.4650 0001977 170.6189 189.4734 14.58848434556478
ORBCOMM FM110           
1 41182U 15081D   26159.40617105  .00000743  00000+0  19351-3 0  9993
2 41182  47.0028  42.9609 0002852  26.3800 333.7231 14.58866539556345
ORBCOMM FM112           
1 41184U 15081F   26158.69180097  .00000819  00000+0  20932-3 0  9991
2 41184  47.0001 315.1475 0003123 175.6095 184.4819 14.58890878557561
ORBCOMM FM113           
1 41185U 15081G   26159.14754797  .00000505  00000+0  14299-3 0  9998
2 41185  47.0018 313.3644 0001738 188.1874 171.8983 14.58849184557614
ORBCOMM FM108           
1 41187U 15081J   26159.45245001  .00000548  00000+0  15217-3 0  9995
2 41187  47.0040 223.4955 0002510 184.4862 175.6002 14.58862136558800
ORBCOMM FM117           
1 41188U 15081K   26158.87004529  .00000590  00000+0  16110-3 0  9999
2 41188  47.0005 224.8856 0002980 184.7848 175.3010 14.58857943558766
ORBCOMM FM116           
1 41189U 15081L   26158.71361229  .00000857  00000+0  21737-3 0  9993
2 41189  47.0035 315.4145 0001121   3.5235 356.5659 14.58869594557555
HORYU-4                 
1 41340U 16012D   26158.66010672  .00317249  00000+0  10211-2 0  9994
2 41340  30.9848 148.6331 0002832 206.9121 153.1392 15.89027763569291
ZIYUAN 3-02 (ZY 3-02)   
1 41556U 16033A   26159.50815844  .00005036  00000+0  22717-3 0  9997
2 41556  97.3834 235.4483 0011623 324.3163  35.7295 15.21397533556669
CARTOSAT-2C             
1 41599U 16040A   26159.49825025  .00005191  00000+0  24921-3 0  9993
2 41599  97.4486 219.5951 0009811 158.8751 201.2891 15.19252620552394
LAPAN-A3                
1 41603U 16040E   26159.51016360  .00003425  00000+0  10943-3 0  9993
2 41603  97.1489 155.9414 0011785  53.8014 306.4316 15.33049801553488
GAOFEN-3                
1 41727U 16049A   26159.48109784  .00000192  00000+0  71387-4 0  9996
2 41727  98.4016 167.3988 0001219  98.2057 261.9271 14.42214990517396
CAS-2T & KS-1Q          
1 41847U 16066G   26159.44434441  .00001755  00000+0  25337-3 0  9994
2 41847  98.3822 235.2804 0342460 155.9357 205.8274 14.44665589503532
YUNHAI-1 01             
1 41857U 16068A   26159.50645329  .00000420  00000+0  17050-3 0  9994
2 41857  98.5836 170.5946 0006486  63.7254 296.4596 14.32699828500580
RESOURCESAT-2A          
1 41877U 16074A   26159.48417105  .00000042  00000+0  39080-4 0  9997
2 41877  98.7521 233.0595 0003344  99.6299 260.5256 14.21613356493066
TANSAT                  
1 41898U 16081A   26159.54445161  .00000680  00000+0  15206-3 0  9999
2 41898  98.5368 159.5470 0020210 339.8943  20.1458 14.59944967503361
JILIN-1 03              
1 41914U 17002B   26159.45699032  .00011740  00000+0  28307-3 0  9995
2 41914  97.1952 166.6659 0005627 182.1472 177.9752 15.41362616520514
CARTOSAT-2D             
1 41948U 17008A   26159.46460924  .00003818  00000+0  18425-3 0  9992
2 41948  97.4108 218.9330 0003532 272.2400  87.8431 15.19267676516253
